{"type":"FeatureCollection","features":[{"type":"Feature","properties":{"ref":"A1","source":"OpenStreetMap via OSRM"},"geometry":{"type":"LineString","coordinates":[[38.74,9.03],[38.7353,8.9174],[38.7791,8.8584],[38.8302,8.8617],[38.9944,8.7968],[39.1475,8.5919],[39.2256,8.5329],[39.3036,8.5408],[39.4259,8.6566],[39.5324,8.697],[39.8355,8.9169],[40.0215,8.9093],[40.1567,8.9799],[40.1926,9.0366],[40.2874,9.0085],[40.3821,9.0231],[40.4471,9.1186],[40.7665,9.2393],[40.9345,9.3803],[41.0119,9.4811],[41.1309,9.5417],[41.1934,9.547],[41.2701,9.4895],[41.3829,9.5349],[41.3837,9.5546],[41.4089,9.5307],[41.4756,9.5431],[41.6229,9.6157],[41.8501,9.6]]}},{"type":"Feature","properties":{"ref":"A2","source":"OpenStreetMap via OSRM"},"geometry":{"type":"LineString","coordinates":[[38.74,9.03],[38.7043,9.0141],[38.6264,9.0376],[38.5959,9.0712],[38.5662,9.054],[38.5023,9.0745],[38.2684,9.0037],[38.1448,9.0304],[38.0126,8.9714],[37.7765,8.9859],[37.7503,8.9538],[37.7436,8.8609],[37.6733,8.8602],[37.6641,8.8172],[37.6047,8.8213],[37.5265,8.7481],[37.4779,8.7385],[37.4304,8.6148],[37.4171,8.4444],[37.3709,8.4192],[37.3366,8.3667],[37.1421,8.3655],[37.1104,8.2925],[36.9691,8.1317],[36.9506,8.0315],[36.8986,7.9711],[36.7834,7.9033],[36.8066,7.7521],[36.7683,7.7328],[36.8037,7.7238],[36.8299,7.6798],[36.8037,7.7238],[36.7298,7.7437],[36.7276,7.7894],[36.6517,7.8619],[36.5799,7.8581],[36.5472,7.923],[36.5157,7.9239],[36.5106,7.9902],[36.4664,8.0199],[36.4782,8.0491],[36.4512,8.0727],[36.4512,8.1379],[36.475,8.1607],[36.4393,8.2045],[36.4374,8.3189],[36.2678,8.3818],[36.223,8.3572],[36.1769,8.3805],[36.0746,8.3434],[35.9825,8.388],[35.7591,8.3268],[35.6575,8.3565],[35.6319,8.3213],[35.5826,8.3074],[35.5807,8.2068],[35.5156,8.1446],[35.3839,8.1591],[35.2723,8.233],[35.1332,8.2451],[35.0226,8.3298],[34.9999,8.3234],[34.9614,8.2425],[34.9676,8.2088],[34.9433,8.1971],[34.849,8.1816],[34.8126,8.1951],[34.6805,8.1623],[34.5946,8.2228],[34.59,8.2499]]}},{"type":"Feature","properties":{"ref":"A3","source":"OpenStreetMap via OSRM"},"geometry":{"type":"LineString","coordinates":[[38.74,9.03],[38.7092,9.1045],[38.7552,9.1389],[38.7612,9.3369],[38.8806,9.4621],[38.8173,9.7299],[38.5858,9.8239],[38.467,9.7706],[38.2519,9.9992],[38.2497,10.0572],[38.151,10.1105],[38.1213,10.2439],[37.9852,10.2228],[37.9076,10.2628],[37.8828,10.2345],[37.7198,10.3397],[37.5668,10.3999],[37.5721,10.4715],[37.3731,10.6784],[37.0667,10.7129],[37.0483,10.8372],[36.9547,10.9198],[36.8662,11.13],[36.848,11.2607],[36.9298,11.3393],[37.2737,11.4595],[37.3599,11.5701],[37.4453,11.5983],[37.4733,11.6952],[37.6615,11.8642],[37.777,12.125],[37.6376,12.2096],[37.5569,12.3917],[37.4405,12.4919],[37.45,12.6002]]}},{"type":"Feature","properties":{"ref":"A4","source":"OpenStreetMap via OSRM"},"geometry":{"type":"LineString","coordinates":[[39.27,8.5399],[39.2383,8.5285],[39.1642,8.5682],[39.1225,8.5687],[39.0352,8.4606],[38.9856,8.3544],[38.7202,8.0565],[38.6879,7.9351],[38.7158,7.931],[38.7076,7.8609],[38.6437,7.758],[38.6454,7.7235],[38.676,7.6632],[38.6702,7.3428],[38.6486,7.3054],[38.6574,7.2639],[38.6504,7.2437],[38.5983,7.1967],[38.5903,7.1997],[38.5897,7.1913],[38.5215,7.1592],[38.4808,7.0933],[38.4898,7.0501]]}},{"type":"Feature","properties":{"ref":"A5","source":"OpenStreetMap via OSRM"},"geometry":{"type":"LineString","coordinates":[[38.5903,7.1997],[38.592,7.1928],[38.6049,7.2074],[38.66,7.1802],[38.7724,7.0791],[38.8737,7.0207],[38.9677,7.0333],[39.0135,7.0141],[39.148,6.9992],[39.181,6.9772],[39.2283,6.9931],[39.3839,7.0052],[39.4972,7.0411],[39.5818,7.0311],[39.6092,7.0564],[39.6387,7.0489],[39.6705,7.0885],[39.6899,7.0862],[39.6904,7.1158],[39.7331,7.1229],[39.7684,7.1029],[39.8343,7.1051],[39.8798,7.1312],[39.9224,7.1371],[39.9736,7.1724],[39.9839,7.1695],[40.0007,7.12]]}},{"type":"Feature","properties":{"ref":"A6","source":"OpenStreetMap via OSRM"},"geometry":{"type":"LineString","coordinates":[[38.74,9.03],[38.6708,8.9651],[38.6462,8.8923],[38.6621,8.8639],[38.6408,8.806],[38.6502,8.7392],[38.5957,8.6817],[38.615,8.5852],[38.6447,8.5842],[38.6075,8.4348],[38.6276,8.4142],[38.4395,8.1731],[38.3696,8.1201],[38.3732,8.0813],[38.2424,7.9323],[38.093,7.6978],[38.0491,7.6665],[38.0201,7.6854],[37.9829,7.6732],[37.9162,7.5836],[37.8499,7.5502],[37.8722,7.5196],[37.8366,7.4517],[37.8538,7.3818],[37.8754,7.361],[37.8924,7.3788],[37.9117,7.3399],[37.949,7.3508],[37.9641,7.3053],[38.0504,7.3263],[38.2486,7.2818],[38.3481,7.3002],[38.4378,7.2858],[38.5786,7.2176],[38.592,7.1928],[38.5226,7.1605],[38.4809,7.0937],[38.4898,7.0501]]}}]}
