{"type":"FeatureCollection","source":"OpenStreetMap via Geofabrik","sourceDate":"2026-07-31T20:21:56Z","features":[{"type":"Feature","properties":{"name":"Addis Ababa","localName":"አዲስ አበባ","place":"city","population":3500000},"geometry":{"type":"Point","coordinates":[38.75243,9.03581]}},{"type":"Feature","properties":{"name":"Wolaita Sodo","localName":"ወላይታ ሶዶ","place":"city","population":512498},"geometry":{"type":"Point","coordinates":[37.75785,6.85775]}},{"type":"Feature","properties":{"name":"Dire Dawa","localName":"ድሬዳዋ","place":"city","population":398000},"geometry":{"type":"Point","coordinates":[41.85661,9.59134]}},{"type":"Feature","properties":{"name":"Adama","localName":"አዳማ","place":"city","population":228623},"geometry":{"type":"Point","coordinates":[39.27055,8.54103]}},{"type":"Feature","properties":{"name":"Gonder","localName":"ጎንደር","place":"city","population":213434},"geometry":{"type":"Point","coordinates":[37.46677,12.61037]}},{"type":"Feature","properties":{"name":"Jimma","localName":"ጂማ","place":"city","population":207573},"geometry":{"type":"Point","coordinates":[36.84788,7.67562]}},{"type":"Feature","properties":{"name":"Mek'elē","localName":"","place":"city","population":185207},"geometry":{"type":"Point","coordinates":[39.47683,13.49666]}},{"type":"Feature","properties":{"name":"Dessie","localName":"ደሴ","place":"city","population":169104},"geometry":{"type":"Point","coordinates":[39.63498,11.1226]}},{"type":"Feature","properties":{"name":"Hawassa","localName":"አዋሳ","place":"city","population":160000},"geometry":{"type":"Point","coordinates":[38.47861,7.0481]}},{"type":"Feature","properties":{"name":"Harar","localName":"ሐረር","place":"city","population":132042},"geometry":{"type":"Point","coordinates":[42.1284,9.31183]}},{"type":"Feature","properties":{"name":"Asella","localName":"አሰላ","place":"city","population":110088},"geometry":{"type":"Point","coordinates":[39.13333,7.95]}},{"type":"Feature","properties":{"name":"Jijiga","localName":"ጂጂጋ","place":"city","population":107122},"geometry":{"type":"Point","coordinates":[42.80038,9.35085]}},{"type":"Feature","properties":{"name":"Arba Minch","localName":"አርባ ምንጭ","place":"city","population":101000},"geometry":{"type":"Point","coordinates":[37.55398,6.02151]}},{"type":"Feature","properties":{"name":"Debre Markos","localName":"ደብረ ማርቆስ","place":"city","population":93780},"geometry":{"type":"Point","coordinates":[37.72856,10.33587]}},{"type":"Feature","properties":{"name":"Naqamte","localName":"ነቀምት","place":"city","population":92700},"geometry":{"type":"Point","coordinates":[36.54816,9.09052]}},{"type":"Feature","properties":{"name":"Kombolcha","localName":"","place":"city","population":75434},"geometry":{"type":"Point","coordinates":[39.74087,11.08136]}},{"type":"Feature","properties":{"name":"Gode","localName":"ጎዴ","place":"city","population":74546},"geometry":{"type":"Point","coordinates":[43.55223,5.9527]}},{"type":"Feature","properties":{"name":"Debre Birhan","localName":"ደብረ ብርሃን","place":"city","population":73697},"geometry":{"type":"Point","coordinates":[39.53249,9.67521]}},{"type":"Feature","properties":{"name":"Dilla","localName":"ዲላ","place":"city","population":67036},"geometry":{"type":"Point","coordinates":[38.31028,6.40996]}},{"type":"Feature","properties":{"name":"Ambo","localName":"አምቦ","place":"city","population":54211},"geometry":{"type":"Point","coordinates":[37.85544,8.9821]}},{"type":"Feature","properties":{"name":"Bati","localName":"","place":"city","population":43500},"geometry":{"type":"Point","coordinates":[40.01975,11.19163]}},{"type":"Feature","properties":{"name":"Gambela","localName":"ጋምቤላ","place":"city","population":31282},"geometry":{"type":"Point","coordinates":[34.58773,8.25037]}},{"type":"Feature","properties":{"name":"Fiche","localName":"","place":"city","population":27493},"geometry":{"type":"Point","coordinates":[38.73886,9.77196]}},{"type":"Feature","properties":{"name":"Fitche","localName":"","place":"city","population":27493},"geometry":{"type":"Point","coordinates":[38.73333,9.78333]}},{"type":"Feature","properties":{"name":"Asosa","localName":"አሶሳ","place":"city","population":20226},"geometry":{"type":"Point","coordinates":[34.5437,10.06464]}},{"type":"Feature","properties":{"name":"Abobo","localName":"አቦቦ","place":"city","population":0},"geometry":{"type":"Point","coordinates":[34.54081,7.89794]}},{"type":"Feature","properties":{"name":"Addi Hamli","localName":"","place":"city","population":0},"geometry":{"type":"Point","coordinates":[37.27219,13.62419]}},{"type":"Feature","properties":{"name":"Areka","localName":"","place":"city","population":0},"geometry":{"type":"Point","coordinates":[37.70784,7.07324]}},{"type":"Feature","properties":{"name":"Awareh","localName":"","place":"city","population":0},"geometry":{"type":"Point","coordinates":[44.15878,8.2591]}},{"type":"Feature","properties":{"name":"Badessa","localName":"","place":"city","population":0},"geometry":{"type":"Point","coordinates":[37.93519,6.87837]}},{"type":"Feature","properties":{"name":"Bahir Dar","localName":"ባሕር-ዳር","place":"city","population":0},"geometry":{"type":"Point","coordinates":[37.38823,11.59497]}},{"type":"Feature","properties":{"name":"Bale Hawassa","localName":"በሌ ሀዋሳ","place":"city","population":0},"geometry":{"type":"Point","coordinates":[37.52669,6.91811]}},{"type":"Feature","properties":{"name":"Baligubadle","localName":"ባሊጉባድል","place":"city","population":0},"geometry":{"type":"Point","coordinates":[44.00012,9.00103]}},{"type":"Feature","properties":{"name":"Beklo Segno","localName":"በቅሎ ሰኞ","place":"city","population":0},"geometry":{"type":"Point","coordinates":[37.6191,6.83169]}},{"type":"Feature","properties":{"name":"Boditi","localName":"ቦዲቲ","place":"city","population":0},"geometry":{"type":"Point","coordinates":[37.85753,6.9549]}},{"type":"Feature","properties":{"name":"Bombe","localName":"","place":"city","population":0},"geometry":{"type":"Point","coordinates":[37.58194,7.13757]}},{"type":"Feature","properties":{"name":"Dambidollo","localName":"","place":"city","population":0},"geometry":{"type":"Point","coordinates":[34.80034,8.53527]}},{"type":"Feature","properties":{"name":"Dimtu","localName":"","place":"city","population":0},"geometry":{"type":"Point","coordinates":[38.12521,6.93155]}},{"type":"Feature","properties":{"name":"Elanle","localName":"","place":"city","population":0},"geometry":{"type":"Point","coordinates":[45.78577,6.56046]}},{"type":"Feature","properties":{"name":"Gara Godo","localName":"","place":"city","population":0},"geometry":{"type":"Point","coordinates":[37.77795,7.08073]}},{"type":"Feature","properties":{"name":"Gasuba","localName":"","place":"city","population":0},"geometry":{"type":"Point","coordinates":[37.55519,6.72388]}},{"type":"Feature","properties":{"name":"Geladi","localName":"","place":"city","population":0},"geometry":{"type":"Point","coordinates":[46.41401,6.97299]}},{"type":"Feature","properties":{"name":"Gununo","localName":"ጉኑኖ","place":"city","population":0},"geometry":{"type":"Point","coordinates":[37.65221,6.92681]}},{"type":"Feature","properties":{"name":"Hara Gebeya","localName":"ሃራ ገበያ","place":"city","population":0},"geometry":{"type":"Point","coordinates":[39.73865,11.84184]}},{"type":"Feature","properties":{"name":"Ksad Gimel","localName":"","place":"city","population":0},"geometry":{"type":"Point","coordinates":[37.36627,13.61454]}},{"type":"Feature","properties":{"name":"Maya City","localName":"","place":"city","population":0},"geometry":{"type":"Point","coordinates":[42.00126,9.39721]}},{"type":"Feature","properties":{"name":"Robe","localName":"ነጩን","place":"city","population":0},"geometry":{"type":"Point","coordinates":[40.0081,7.12427]}},{"type":"Feature","properties":{"name":"Shanto","localName":"","place":"city","population":0},"geometry":{"type":"Point","coordinates":[37.86077,7.02317]}},{"type":"Feature","properties":{"name":"Shashamane","localName":"ሻሸመኔ","place":"city","population":0},"geometry":{"type":"Point","coordinates":[38.60896,7.20391]}},{"type":"Feature","properties":{"name":"Shilabo","localName":"","place":"city","population":0},"geometry":{"type":"Point","coordinates":[44.76883,6.0943]}},{"type":"Feature","properties":{"name":"Tebela","localName":"ሁምቦ ጠበላ","place":"city","population":0},"geometry":{"type":"Point","coordinates":[37.76659,6.70628]}},{"type":"Feature","properties":{"name":"Togechane ቶግ ዋጃሌ","localName":"","place":"city","population":0},"geometry":{"type":"Point","coordinates":[43.33064,9.59767]}},{"type":"Feature","properties":{"name":"Toon Barwaaqo","localName":"","place":"city","population":0},"geometry":{"type":"Point","coordinates":[45.68264,7.32001]}},{"type":"Feature","properties":{"name":"Werder","localName":"","place":"city","population":0},"geometry":{"type":"Point","coordinates":[45.34315,6.97449]}}]}